[
    {
        "Altitude(m)": 611965.1971460357,
        "Argument of Periapsis(deg)": 0.0,
        "Eccentricity": 0.0,
        "Inclination(deg)": 60.0,
        "Latitude(deg)": 59.140197303036736,
        "Longitude(deg)": -1.0303706323092998,
        "Mean Anomaly(deg)": 81.8182,
        "RAAN(deg)": 25.0,
        "Satellite Name": "Test1 115",
        "Satellite Number": 115,
        "Semi-Major Axis(m)": 6980739.136638005,
        "Time(s)": 0
    },
    {
        "Altitude(m)": 611995.8233524951,
        "Argument of Periapsis(deg)": 0.00010418945913296404,
        "Eccentricity": 0.0,
        "Inclination(deg)": 60.0,
        "Latitude(deg)": 59.28329951618912,
        "Longitude(deg)": 0.1029916957801328,
        "Mean Anomaly(deg)": 82.43830614546184,
        "RAAN(deg)": 24.99957995086026,
        "Satellite Name": "Test1 115",
        "Satellite Number": 115,
        "Semi-Major Axis(m)": 6980739.136638005,
        "Time(s)": 10
    }
]